[{"OBJECT_NAME":"SHIYAN-5 (SY-5)","OBJECT_ID":"2013-068A","EPOCH":"2026-03-09T23:05:17.847168","MEAN_MOTION":14.43628019,"ECCENTRICITY":0.00128666,"INCLINATION":98.0874,"RA_OF_ASC_NODE":305.1507,"ARG_OF_PERICENTER":245.0461,"MEAN_ANOMALY":114.9394,"EPHEMERIS_TYPE":0,"CLASSIFICATION_TYPE":"U","NORAD_CAT_ID":39455,"ELEMENT_SET_NO":999,"REV_AT_EPOCH":64731,"BSTAR":0.00021006914,"MEAN_MOTION_DOT":6.72e-6,"MEAN_MOTION_DDOT":0},{"OBJECT_NAME":"COSMOS 2251 DEB","OBJECT_ID":"1993-036AE","EPOCH":"2026-03-09T17:35:40.558848","MEAN_MOTION":13.8895241,"ECCENTRICITY":0.02390776,"INCLINATION":74.0634,"RA_OF_ASC_NODE":299.7528,"ARG_OF_PERICENTER":34.7326,"MEAN_ANOMALY":31.4922,"EPHEMERIS_TYPE":0,"CLASSIFICATION_TYPE":"U","NORAD_CAT_ID":33789,"ELEMENT_SET_NO":999,"REV_AT_EPOCH":86303,"BSTAR":0.00063469937,"MEAN_MOTION_DOT":9.43e-6,"MEAN_MOTION_DDOT":0}]
